[{"OBJECT_NAME":"NIGHTJAR","OBJECT_ID":"2024-149BV","EPOCH":"2026-03-09T15:29:33.054144","MEAN_MOTION":14.9839881,"ECCENTRICITY":0.00023928,"INCLINATION":97.6919,"RA_OF_ASC_NODE":146.7603,"ARG_OF_PERICENTER":83.3363,"MEAN_ANOMALY":276.8132,"EPHEMERIS_TYPE":0,"CLASSIFICATION_TYPE":"U","NORAD_CAT_ID":60535,"ELEMENT_SET_NO":999,"REV_AT_EPOCH":12796,"BSTAR":0.00036343971,"MEAN_MOTION_DOT":4.278e-5,"MEAN_MOTION_DDOT":0},{"OBJECT_NAME":"STARLINK-36084","OBJECT_ID":"2025-280J","EPOCH":"2026-03-09T22:21:12.154752","MEAN_MOTION":14.98330561,"ECCENTRICITY":0.0002624,"INCLINATION":70.0029,"RA_OF_ASC_NODE":333.7835,"ARG_OF_PERICENTER":261.2566,"MEAN_ANOMALY":98.8296,"EPHEMERIS_TYPE":0,"CLASSIFICATION_TYPE":"U","NORAD_CAT_ID":66829,"ELEMENT_SET_NO":999,"REV_AT_EPOCH":1611,"BSTAR":0.00053936886,"MEAN_MOTION_DOT":6.349e-5,"MEAN_MOTION_DDOT":0}]
